[{"OBJECT_NAME":"STARLINK-31368","OBJECT_ID":"2024-031F","EPOCH":"2026-03-09T20:44:20.889888","MEAN_MOTION":15.30200677,"ECCENTRICITY":7.079e-5,"INCLINATION":53.1605,"RA_OF_ASC_NODE":295.6265,"ARG_OF_PERICENTER":129.3975,"MEAN_ANOMALY":230.7088,"EPHEMERIS_TYPE":0,"CLASSIFICATION_TYPE":"U","NORAD_CAT_ID":58970,"ELEMENT_SET_NO":999,"REV_AT_EPOCH":11656,"BSTAR":3.3253478e-5,"MEAN_MOTION_DOT":6.26e-6,"MEAN_MOTION_DDOT":0},{"OBJECT_NAME":"YAOGAN-43 01F","OBJECT_ID":"2024-148F","EPOCH":"2026-03-10T00:23:08.877408","MEAN_MOTION":15.29824616,"ECCENTRICITY":0.00057048,"INCLINATION":34.9925,"RA_OF_ASC_NODE":59.8891,"ARG_OF_PERICENTER":18.4862,"MEAN_ANOMALY":341.6062,"EPHEMERIS_TYPE":0,"CLASSIFICATION_TYPE":"U","NORAD_CAT_ID":60463,"ELEMENT_SET_NO":999,"REV_AT_EPOCH":8707,"BSTAR":0.00058388219,"MEAN_MOTION_DOT":0.00017308,"MEAN_MOTION_DDOT":0}]
